IRIDIUM 106             
1 41917U 17003A   25165.69447088  .00000074  00000+0  19366-4 0  9997
2 41917  86.3976 242.0434 0002499  83.3530 276.7950 14.34218038440534
IRIDIUM 103             
1 41918U 17003B   25165.75155488  .00000106  00000+0  30809-4 0  9996
2 41918  86.3975 241.9204 0002870  98.3231 261.8290 14.34218267440563
IRIDIUM 109             
1 41919U 17003C   25166.24627570  .00000126  00000+0  37820-4 0  9990
2 41919  86.3976 241.7671 0002377  98.5008 261.6457 14.34217796440623
IRIDIUM 102             
1 41920U 17003D   25166.14479086  .00000165  00000+0  51710-4 0  9995
2 41920  86.3974 241.7409 0002152  96.7244 263.4197 14.34219565440677
IRIDIUM 105             
1 41921U 17003E   25165.83645772  .00000081  00000+0  21725-4 0  9998
2 41921  86.3993 210.3358 0002526  94.7763 265.3721 14.34216631442489
IRIDIUM 104             
1 41922U 17003F   25166.15747968  .00000097  00000+0  27722-4 0  9995
2 41922  86.3976 241.7726 0002534 103.5938 256.5541 14.34218418440665
IRIDIUM 114             
1 41923U 17003G   25165.74521187  .00000110  00000+0  32264-4 0  9996
2 41923  86.3974 241.9294 0002585  95.1458 265.0033 14.34218065440585
IRIDIUM 108             
1 41924U 17003H   25165.84326940  .00000048  00000+0  10023-4 0  9997
2 41924  86.3987 210.2345 0002277  87.9690 272.1766 14.34217945442457
